CCSDS_OMM_VERS = 2.0
CREATION_DATE  = 
ORIGINATOR     = 

OBJECT_NAME    = UNKNOWN
OBJECT_ID      = 
CENTER_NAME    = EARTH
REF_FRAME      = TEME
TIME_SYSTEM    = UTC
MEAN_ELEMENT_THEORY = SGP/SGP4

EPOCH          = 2025-11-26T09:52:27.181344
MEAN_MOTION    = 13.82620148
ECCENTRICITY   = .0173254
INCLINATION    = 99.0841
RA_OF_ASC_NODE = 127.3123
ARG_OF_PERICENTER = 337.0575
MEAN_ANOMALY   = 52.2163

EPHEMERIS_TYPE = 0
CLASSIFICATION_TYPE = U
NORAD_CAT_ID   = 82739
ELEMENT_SET_NO = 999
REV_AT_EPOCH   = 60385
BSTAR          = .17332E-2
MEAN_MOTION_DOT = .2068E-4
MEAN_MOTION_DDOT = 0

CCSDS_OMM_VERS = 2.0
CREATION_DATE  = 
ORIGINATOR     = 

OBJECT_NAME    = UNKNOWN
OBJECT_ID      = 
CENTER_NAME    = EARTH
REF_FRAME      = TEME
TIME_SYSTEM    = UTC
MEAN_ELEMENT_THEORY = SGP/SGP4

EPOCH          = 2025-11-25T03:09:04.482432
MEAN_MOTION    = 13.08985067
ECCENTRICITY   = .0026737
INCLINATION    = 90.3403
RA_OF_ASC_NODE = 37.6146
ARG_OF_PERICENTER = 160.6414
MEAN_ANOMALY   = 199.5735

EPHEMERIS_TYPE = 0
CLASSIFICATION_TYPE = U
NORAD_CAT_ID   = 82783
ELEMENT_SET_NO = 999
REV_AT_EPOCH   = 50205
BSTAR          = .19363E-2
MEAN_MOTION_DOT = .671E-5
MEAN_MOTION_DDOT = 0

CCSDS_OMM_VERS = 2.0
CREATION_DATE  = 
ORIGINATOR     = 

OBJECT_NAME    = UNKNOWN
OBJECT_ID      = 
CENTER_NAME    = EARTH
REF_FRAME      = TEME
TIME_SYSTEM    = UTC
MEAN_ELEMENT_THEORY = SGP/SGP4

EPOCH          = 2025-11-26T10:27:52.564320
MEAN_MOTION    = 14.22807053
ECCENTRICITY   = .0028245
INCLINATION    = 82.9514
RA_OF_ASC_NODE = 204.8527
ARG_OF_PERICENTER = 222.1180
MEAN_ANOMALY   = 315.5182

EPHEMERIS_TYPE = 0
CLASSIFICATION_TYPE = U
NORAD_CAT_ID   = 82798
ELEMENT_SET_NO = 999
REV_AT_EPOCH   = 31005
BSTAR          = .10999E-2
MEAN_MOTION_DOT = .2493E-4
MEAN_MOTION_DDOT = 0

CCSDS_OMM_VERS = 2.0
CREATION_DATE  = 
ORIGINATOR     = 

OBJECT_NAME    = UNKNOWN
OBJECT_ID      = 
CENTER_NAME    = EARTH
REF_FRAME      = TEME
TIME_SYSTEM    = UTC
MEAN_ELEMENT_THEORY = SGP/SGP4

EPOCH          = 2025-11-27T09:46:26.555520
MEAN_MOTION    = 14.34771744
ECCENTRICITY   = .0048798
INCLINATION    = 99.7883
RA_OF_ASC_NODE = 130.1268
ARG_OF_PERICENTER = 59.3308
MEAN_ANOMALY   = 301.2670

EPHEMERIS_TYPE = 0
CLASSIFICATION_TYPE = U
NORAD_CAT_ID   = 82820
ELEMENT_SET_NO = 999
REV_AT_EPOCH   = 62343
BSTAR          = .12691E-2
MEAN_MOTION_DOT = .3594E-4
MEAN_MOTION_DDOT = 0

CCSDS_OMM_VERS = 2.0
CREATION_DATE  = 
ORIGINATOR     = 

OBJECT_NAME    = UNKNOWN
OBJECT_ID      = 
CENTER_NAME    = EARTH
REF_FRAME      = TEME
TIME_SYSTEM    = UTC
MEAN_ELEMENT_THEORY = SGP/SGP4

EPOCH          = 2025-10-31T12:06:51.685632
MEAN_MOTION    = 11.29112830
ECCENTRICITY   = .0168315
INCLINATION    = 65.0944
RA_OF_ASC_NODE = 126.2556
ARG_OF_PERICENTER = 345.0925
MEAN_ANOMALY   = 42.7807

EPHEMERIS_TYPE = 0
CLASSIFICATION_TYPE = U
NORAD_CAT_ID   = 82829
ELEMENT_SET_NO = 999
REV_AT_EPOCH   = 48131
BSTAR          = .21351E-2
MEAN_MOTION_DOT = .35E-6
MEAN_MOTION_DDOT = 0

CCSDS_OMM_VERS = 2.0
CREATION_DATE  = 
ORIGINATOR     = 

OBJECT_NAME    = UNKNOWN
OBJECT_ID      = 
CENTER_NAME    = EARTH
REF_FRAME      = TEME
TIME_SYSTEM    = UTC
MEAN_ELEMENT_THEORY = SGP/SGP4

EPOCH          = 2025-11-26T00:37:13.244736
MEAN_MOTION    = 13.87690285
ECCENTRICITY   = .0125827
INCLINATION    = 82.6889
RA_OF_ASC_NODE = 77.7115
ARG_OF_PERICENTER = 327.6078
MEAN_ANOMALY   = 31.7402

EPHEMERIS_TYPE = 0
CLASSIFICATION_TYPE = U
NORAD_CAT_ID   = 82854
ELEMENT_SET_NO = 999
REV_AT_EPOCH   = 60548
BSTAR          = .18533E-2
MEAN_MOTION_DOT = .235E-4
MEAN_MOTION_DDOT = 0

CCSDS_OMM_VERS = 2.0
CREATION_DATE  = 
ORIGINATOR     = 

OBJECT_NAME    = UNKNOWN
OBJECT_ID      = 
CENTER_NAME    = EARTH
REF_FRAME      = TEME
TIME_SYSTEM    = UTC
MEAN_ELEMENT_THEORY = SGP/SGP4

EPOCH          = 2025-11-27T03:45:40.132800
MEAN_MOTION    = 14.24238660
ECCENTRICITY   = .0041221
INCLINATION    = 99.9945
RA_OF_ASC_NODE = 223.1999
ARG_OF_PERICENTER = 328.2700
MEAN_ANOMALY   = 31.5991

EPHEMERIS_TYPE = 0
CLASSIFICATION_TYPE = U
NORAD_CAT_ID   = 82873
ELEMENT_SET_NO = 999
REV_AT_EPOCH   = 61901
BSTAR          = .19443E-2
MEAN_MOTION_DOT = .4472E-4
MEAN_MOTION_DDOT = 0

CCSDS_OMM_VERS = 2.0
CREATION_DATE  = 
ORIGINATOR     = 

OBJECT_NAME    = UNKNOWN
OBJECT_ID      = 
CENTER_NAME    = EARTH
REF_FRAME      = TEME
TIME_SYSTEM    = UTC
MEAN_ELEMENT_THEORY = SGP/SGP4

EPOCH          = 2025-11-26T05:07:04.582272
MEAN_MOTION    = 14.15096539
ECCENTRICITY   = .0377445
INCLINATION    = 98.6719
RA_OF_ASC_NODE = 313.9647
ARG_OF_PERICENTER = 330.6409
MEAN_ANOMALY   = 27.4020

EPHEMERIS_TYPE = 0
CLASSIFICATION_TYPE = U
NORAD_CAT_ID   = 82875
ELEMENT_SET_NO = 999
REV_AT_EPOCH   = 54213
BSTAR          = .43347E-3
MEAN_MOTION_DOT = .1625E-4
MEAN_MOTION_DDOT = 0

CCSDS_OMM_VERS = 2.0
CREATION_DATE  = 
ORIGINATOR     = 

OBJECT_NAME    = UNKNOWN
OBJECT_ID      = 
CENTER_NAME    = EARTH
REF_FRAME      = TEME
TIME_SYSTEM    = UTC
MEAN_ELEMENT_THEORY = SGP/SGP4

EPOCH          = 2025-11-27T07:08:29.189184
MEAN_MOTION    = 14.31228672
ECCENTRICITY   = .0024268
INCLINATION    = 98.9630
RA_OF_ASC_NODE = 85.8964
ARG_OF_PERICENTER = 94.2145
MEAN_ANOMALY   = 266.1811

EPHEMERIS_TYPE = 0
CLASSIFICATION_TYPE = U
NORAD_CAT_ID   = 82893
ELEMENT_SET_NO = 999
REV_AT_EPOCH   = 42176
BSTAR          = .30091E-2
MEAN_MOTION_DOT = .794E-4
MEAN_MOTION_DDOT = 0

CCSDS_OMM_VERS = 2.0
CREATION_DATE  = 
ORIGINATOR     = 

OBJECT_NAME    = UNKNOWN
OBJECT_ID      = 
CENTER_NAME    = EARTH
REF_FRAME      = TEME
TIME_SYSTEM    = UTC
MEAN_ELEMENT_THEORY = SGP/SGP4

EPOCH          = 2025-11-26T09:12:59.744448
MEAN_MOTION    = 13.27527729
ECCENTRICITY   = .0777383
INCLINATION    = 65.8357
RA_OF_ASC_NODE = 211.9692
ARG_OF_PERICENTER = 276.2703
MEAN_ANOMALY   = 75.0423

EPHEMERIS_TYPE = 0
CLASSIFICATION_TYPE = U
NORAD_CAT_ID   = 82912
ELEMENT_SET_NO = 999
REV_AT_EPOCH   = 57715
BSTAR          = .17263E-2
MEAN_MOTION_DOT = .4199E-4
MEAN_MOTION_DDOT = 0

